$$SOE
2461302.500000000, A.D. 2026-Sep-19 00:00:00.0000, 2.973748180861893E+08, -1.543814610430097E+07, -2.533533526391327E+07,
2461309.500000000, A.D. 2026-Sep-26 00:00:00.0000, 2.963520932294823E+08, -2.083973631837479E+06, -2.595808946460587E+07,
2461316.500000000, A.D. 2026-Oct-03 00:00:00.0000, 2.947830640102075E+08, 1.127396131308495E+07, -2.653298682830644E+07,
2461323.500000000, A.D. 2026-Oct-10 00:00:00.0000, 2.926634143714375E+08, 2.461075796056620E+07, -2.705831879619616E+07,
2461330.500000000, A.D. 2026-Oct-17 00:00:00.0000, 2.899901327747850E+08, 3.790091794210368E+07, -2.753245970280308E+07,
2461337.500000000, A.D. 2026-Oct-24 00:00:00.0000, 2.867615836303774E+08, 5.111842487185462E+07, -2.795387731692149E+07,
2461344.500000000, A.D. 2026-Oct-31 00:00:00.0000, 2.829775734511184E+08, 6.423683264438178E+07, -2.832114340090220E+07,
2461351.500000000, A.D. 2026-Nov-07 00:00:00.0000, 2.786394109153531E+08, 7.722936220769137E+07, -2.863294419681846E+07,
2461358.500000000, A.D. 2026-Nov-14 00:00:00.0000, 2.737499598800991E+08, 9.006900719427450E+07, -2.888809065967213E+07,
2461365.500000000, A.D. 2026-Nov-21 00:00:00.0000, 2.683136823928891E+08, 1.027286484133819E+08, -2.908552807977451E+07,
2461372.500000000, A.D. 2026-Nov-28 00:00:00.0000, 2.623366696366669E+08, 1.151811733404094E+08, -2.922434510960955E+07,
2461379.500000000, A.D. 2026-Dec-05 00:00:00.0000, 2.558266634360325E+08, 1.273995989032733E+08, -2.930378243951531E+07,
2461386.500000000, A.D. 2026-Dec-12 00:00:00.0000, 2.487930676012148E+08, 1.393571994759700E+08, -2.932324073997209E+07,
2461393.500000000, A.D. 2026-Dec-19 00:00:00.0000, 2.412469464931174E+08, 1.510276387447031E+08, -2.928228755954648E+07,
2461400.500000000, A.D. 2026-Dec-26 00:00:00.0000, 2.332010101237110E+08, 1.623851031098888E+08, -2.918066310925724E+07,
2461407.500000000, A.D. 2027-Jan-02 00:00:00.0000, 2.246695857285362E+08, 1.734044348631062E+08, -2.901828486015322E+07,
2461414.500000000, A.D. 2027-Jan-09 00:00:00.0000, 2.156685758113087E+08, 1.840612635209163E+08, -2.879525086519132E+07,
2461421.500000000, A.D. 2027-Jan-16 00:00:00.0000, 2.062154028141734E+08, 1.943321336547390E+08, -2.851184172909909E+07,
2461428.500000000, A.D. 2027-Jan-23 00:00:00.0000, 1.963289408193990E+08, 2.041946275159367E+08, -2.816852117663135E+07,
2461435.500000000, A.D. 2027-Jan-30 00:00:00.0000, 1.860294350715005E+08, 2.136274807975089E+08, -2.776593520738270E+07,
2461442.500000000, A.D. 2027-Feb-06 00:00:00.0000, 1.753384105821325E+08, 2.226106903526361E+08, -2.730490984170140E+07,
2461449.500000000, A.D. 2027-Feb-13 00:00:00.0000, 1.642785704130709E+08, 2.311256136878019E+08, -2.678644733504630E+07,
2461456.500000000, A.D. 2027-Feb-20 00:00:00.0000, 1.528736825033643E+08, 2.391550581918096E+08, -2.621172074861380E+07,
2461463.500000000, A.D. 2027-Feb-27 00:00:00.0000, 1.411484578358712E+08, 2.466833558621219E+08, -2.558206733443034E+07,
2461470.500000000, A.D. 2027-Mar-06 00:00:00.0000, 1.291284245146807E+08, 2.536964246390558E+08, -2.489898095060870E+07,
2461477.500000000, A.D. 2027-Mar-13 00:00:00.0000, 1.168397977817513E+08, 2.601818177983060E+08, -2.416410330414841E+07,
2461484.500000000, A.D. 2027-Mar-20 00:00:00.0000, 1.043093465153938E+08, 2.661287602188191E+08, -2.337921411379947E+07,
2461491.500000000, A.D. 2027-Mar-27 00:00:00.0000, 9.156425809822573E+07, 2.715281708790773E+08, -2.254622039941339E+07,
2461498.500000000, A.D. 2027-Apr-03 00:00:00.0000, 7.863200351395684E+07, 2.763726716755949E+08, -2.166714507371414E+07,
2461505.500000000, A.D. 2027-Apr-10 00:00:00.0000, 6.554020432268602E+07, 2.806565829546008E+08, -2.074411499970137E+07,
2461512.500000000, A.D. 2027-Apr-17 00:00:00.0000, 5.231650302359005E+07, 2.843759063180484E+08, -1.977934867842799E+07,
2461519.500000000, A.D. 2027-Apr-24 00:00:00.0000, 3.898843824072298E+07, 2.875282954007474E+08, -1.877514373930988E+07,
2461526.500000000, A.D. 2027-May-01 00:00:00.0000, 2.558332623434621E+07, 2.901130155615774E+08, -1.773386441279085E+07,
2461533.500000000, A.D. 2027-May-08 00:00:00.0000, 1.212815007775899E+07, 2.921308942814351E+08, -1.665792909935154E+07,
2461540.500000000, A.D. 2027-May-15 00:00:00.0000, -1.350544138721196E+06, 2.935842643615968E+08, -1.554979795698664E+07,
2461547.500000000, A.D. 2027-May-22 00:00:00.0000, -1.482674496428080E+07, 2.944768985126303E+08, -1.441196069675881E+07,
2461554.500000000, A.D. 2027-May-29 00:00:00.0000, -2.827506327693645E+07, 2.948139350804548E+08, -1.324692511890900E+07,
2461561.500000000, A.D. 2027-Jun-05 00:00:00.0000, -4.167080881845716E+07, 2.946017992881474E+08, -1.205720630994269E+07,
2461568.500000000, A.D. 2027-Jun-12 00:00:00.0000, -5.499005743518270E+07, 2.938481216328377E+08, -1.084531635907897E+07,
2461575.500000000, A.D. 2027-Jun-19 00:00:00.0000, -6.820970937126763E+07, 2.925616536550833E+08, -9.613754699444771E+06,
2461582.500000000, A.D. 2027-Jun-26 00:00:00.0000, -8.130753849170575E+07, 2.907521819125232E+08, -8.364999165321738E+06,
2461589.500000000, A.D. 2027-Jul-03 00:00:00.0000, -9.426223257976082E+07, 2.884304411829039E+08, -7.101497806856886E+06,
2461596.500000000, A.D. 2027-Jul-10 00:00:00.0000, -1.070534250497802E+08, 2.856080278332723E+08, -5.825661481231913E+06,
2461603.500000000, A.D. 2027-Jul-17 00:00:00.0000, -1.196617184976456E+08, 2.822973141479026E+08, -4.539857230597794E+06,
2461610.500000000, A.D. 2027-Jul-24 00:00:00.0000, -1.320687004509835E+08, 2.785113642803976E+08, -3.246402458657235E+06,
2461617.500000000, A.D. 2027-Jul-31 00:00:00.0000, -1.442569514685769E+08, 2.742638526843817E+08, -1.947559906484902E+06,
2461624.500000000, A.D. 2027-Aug-07 00:00:00.0000, -1.562100463838960E+08, 2.695689866839467E+08, -6.455332885764688E+05,
2461631.500000000, A.D. 2027-Aug-14 00:00:00.0000, -1.679125516143324E+08, 2.644414333443410E+08, 6.575366334716678E+05,
2461638.500000000, A.D. 2027-Aug-21 00:00:00.0000, -1.793500185429652E+08, 2.588962476041207E+08, 1.959575245024353E+06,
2461645.500000000, A.D. 2027-Aug-28 00:00:00.0000, -1.905089701660323E+08, 2.529488031115272E+08, 3.258576365167305E+06,
2461652.500000000, A.D. 2027-Sep-04 00:00:00.0000, -2.013768828024405E+08, 2.466147284528932E+08, 4.552603980628923E+06,
2461659.500000000, A.D. 2027-Sep-11 00:00:00.0000, -2.119421648323649E+08, 2.399098482316701E+08, 5.839793544130728E+06,
2461666.500000000, A.D. 2027-Sep-18 00:00:00.0000, -2.221941328646095E+08, 2.328501283878582E+08, 7.118352817721203E+06,
2461673.500000000, A.D. 2027-Sep-25 00:00:00.0000, -2.321229856068107E+08, 2.254516256592399E+08, 8.386562279848322E+06,
2461680.500000000, A.D. 2027-Oct-02 00:00:00.0000, -2.417197758330067E+08, 2.177304411455342E+08, 9.642775136537895E+06,
2461687.500000000, A.D. 2027-Oct-09 00:00:00.0000, -2.509763808585581E+08, 2.097026778678229E+08, 1.088541697767150E+07,
2461694.500000000, A.D. 2027-Oct-16 00:00:00.0000, -2.598854718527625E+08, 2.013844021353631E+08, 1.211298510960026E+07,
2461701.500000000, A.D. 2027-Oct-23 00:00:00.0000, -2.684404820833948E+08, 1.927916085570788E+08, 1.332404757914557E+07,
2461708.500000000, A.D. 2027-Oct-30 00:00:00.0000, -2.766355740340139E+08, 1.839401891320714E+08, 1.451724194147570E+07,
2461715.500000000, A.D. 2027-Nov-06 00:00:00.0000, -2.844656068380495E+08, 1.748459073576531E+08, 1.569127400515768E+07,
2461722.500000000, A.D. 2027-Nov-13 00:00:00.0000, -2.919261062643358E+08, 1.655243750838834E+08, 1.684491659858453E+07,
2461729.500000000, A.D. 2027-Nov-20 00:00:00.0000, -2.990132345616648E+08, 1.559910297316834E+08, 1.797700794248120E+07,
2461736.500000000, A.D. 2027-Nov-27 00:00:00.0000, -3.057237587157102E+08, 1.462611146304226E+08, 1.908644974936750E+07,
2461743.500000000, A.D. 2027-Dec-04 00:00:00.0000, -3.120550192965417E+08, 1.363496631797328E+08, 2.017220533418754E+07,
2461750.500000000, A.D. 2027-Dec-11 00:00:00.0000, -3.180049005802183E+08, 1.262714856751593E+08, 2.123329772941912E+07,
2461757.500000000, A.D. 2027-Dec-18 00:00:00.0000, -3.235718017724835E+08, 1.160411582675177E+08, 2.226880777128441E+07,
2461764.500000000, A.D. 2027-Dec-25 00:00:00.0000, -3.287546092630072E+08, 1.056730138664079E+08, 2.327787216025688E+07,
2461771.500000000, A.D. 2028-Jan-01 00:00:00.0000, -3.335526699315949E+08, 9.518113482235038E+07, 2.425968150844753E+07,
$$EOE